{
  "type": "FeatureCollection",
  "features": [
    {
      "type": "Feature",
      "properties": {
        "norad_id": 66456,
        "name": "STARLINK-35643",
        "group": "last-30-days",
        "lat": -29.812080718445422,
        "lon": 19.67445056217168,
        "alt_km": 446.0569474255517,
        "timestamp": "2025-12-15T04:01:19.178394+00:00",
        "meta_object_name": "STARLINK-35643",
        "meta_object_id": "2025-262A",
        "meta_epoch": "2025-12-14T06:26:32.770176",
        "meta_mean_motion": 15.40673299,
        "meta_eccentricity": 0.00013667,
        "meta_inclination": 42.9981,
        "meta_ra_of_asc_node": 62.8042,
        "meta_arg_of_pericenter": 246.4553,
        "meta_mean_anomaly": 113.616,
        "meta_ephemeris_type": 0,
        "meta_classification_type": "U",
        "meta_norad_cat_id": 66456,
        "meta_element_set_no": 999,
        "meta_rev_at_epoch": 579,
        "meta_bstar": 0.0013731422,
        "meta_mean_motion_dot": 0.00057438,
        "meta_mean_motion_ddot": 0,
        "tle_line1": "1 66456U 25262A   25348.26843484  .00057438  00000+0  13731-2 0  9998",
        "tle_line2": "2 66456  42.9981  62.8042 0001366 246.4553 113.6160 15.40673299  5794"
      },
      "geometry": {
        "type": "Point",
        "coordinates": [
          19.67445056217168,
          -29.812080718445422
        ]
      }
    },
    {
      "type": "Feature",
      "properties": {
        "norad_id": 66457,
        "name": "STARLINK-35466",
        "group": "last-30-days",
        "lat": -14.760381024965449,
        "lon": 41.13549586553641,
        "alt_km": 446.0274405428727,
        "timestamp": "2025-12-15T04:01:19.178444+00:00",
        "meta_object_name": "STARLINK-35466",
        "meta_object_id": "2025-262B",
        "meta_epoch": "2025-12-13T22:33:20.355552",
        "meta_mean_motion": 15.40671751,
        "meta_eccentricity": 0.00024231,
        "meta_inclination": 42.9963,
        "meta_ra_of_asc_node": 64.639,
        "meta_arg_of_pericenter": 88.46,
        "meta_mean_anomaly": 271.6534,
        "meta_ephemeris_type": 0,
        "meta_classification_type": "U",
        "meta_norad_cat_id": 66457,
        "meta_element_set_no": 999,
        "meta_rev_at_epoch": 574,
        "meta_bstar": 0.0011376506,
        "meta_mean_motion_dot": 0.00047472,
        "meta_mean_motion_ddot": 0,
        "tle_line1": "1 66457U 25262B   25347.93981893  .00047472  00000+0  11377-2 0  9990",
        "tle_line2": "2 66457  42.9963  64.6390 0002423  88.4600 271.6534 15.40671751  5749"
      },
      "geometry": {
        "type": "Point",
        "coordinates": [
          41.13549586553641,
          -14.760381024965449
        ]
      }
    },
    {
      "type": "Feature",
      "properties": {
        "norad_id": 66458,
        "name": "STARLINK-35684",
        "group": "last-30-days",
        "lat": -22.557068906112022,
        "lon": 31.120622504895273,
        "alt_km": 446.1813678328308,
        "timestamp": "2025-12-15T04:01:19.178462+00:00",
        "meta_object_name": "STARLINK-35684",
        "meta_object_id": "2025-262C",
        "meta_epoch": "2025-12-14T06:23:19.275648",
        "meta_mean_motion": 15.4072028,
        "meta_eccentricity": 0.00013262,
        "meta_inclination": 43,
        "meta_ra_of_asc_node": 62.7886,
        "meta_arg_of_pericenter": 73.0033,
        "meta_mean_anomaly": 287.0969,
        "meta_ephemeris_type": 0,
        "meta_classification_type": "U",
        "meta_norad_cat_id": 66458,
        "meta_element_set_no": 999,
        "meta_rev_at_epoch": 579,
        "meta_bstar": 0.0014126423,
        "meta_mean_motion_dot": 0.00059205,
        "meta_mean_motion_ddot": 0,
        "tle_line1": "1 66458U 25262C   25348.26619532  .00059205  00000+0  14126-2 0  9998",
        "tle_line2": "2 66458  43.0000  62.7886 0001326  73.0033 287.0969 15.40720280  5794"
      },
      "geometry": {
        "type": "Point",
        "coordinates": [
          31.120622504895273,
          -22.557068906112022
        ]
      }
    },
    {
      "type": "Feature",
      "properties": {
        "norad_id": 66459,
        "name": "STARLINK-35449",
        "group": "last-30-days",
        "lat": -6.450333326749378,
        "lon": 50.56091109014647,
        "alt_km": 444.36330532736065,
        "timestamp": "2025-12-15T04:01:19.178475+00:00",
        "meta_object_name": "STARLINK-35449",
        "meta_object_id": "2025-262D",
        "meta_epoch": "2025-12-14T06:16:52.709952",
        "meta_mean_motion": 15.40697499,
        "meta_eccentricity": 0.00011243,
        "meta_inclination": 42.9987,
        "meta_ra_of_asc_node": 62.7517,
        "meta_arg_of_pericenter": 78.5973,
        "meta_mean_anomaly": 281.501,
        "meta_ephemeris_type": 0,
        "meta_classification_type": "U",
        "meta_norad_cat_id": 66459,
        "meta_element_set_no": 999,
        "meta_rev_at_epoch": 579,
        "meta_bstar": 0.0013782293,
        "meta_mean_motion_dot": 0.000577,
        "meta_mean_motion_ddot": 0,
        "tle_line1": "1 66459U 25262D   25348.26172118  .00057700  00000+0  13782-2 0  9998",
        "tle_line2": "2 66459  42.9987  62.7517 0001124  78.5973 281.5010 15.40697499  5798"
      },
      "geometry": {
        "type": "Point",
        "coordinates": [
          50.56091109014647,
          -6.450333326749378
        ]
      }
    },
    {
      "type": "Feature",
      "properties": {
        "norad_id": 66460,
        "name": "STARLINK-35424",
        "group": "last-30-days",
        "lat": 1.9282395761580289,
        "lon": 59.57298061009419,
        "alt_km": 443.07448838320215,
        "timestamp": "2025-12-15T04:01:19.178487+00:00",
        "meta_object_name": "STARLINK-35424",
        "meta_object_id": "2025-262E",
        "meta_epoch": "2025-12-14T06:13:38.731584",
        "meta_mean_motion": 15.40660029,
        "meta_eccentricity": 8.067e-05,
        "meta_inclination": 42.9936,
        "meta_ra_of_asc_node": 62.7369,
        "meta_arg_of_pericenter": 307.5059,
        "meta_mean_anomaly": 52.5724,
        "meta_ephemeris_type": 0,
        "meta_classification_type": "U",
        "meta_norad_cat_id": 66460,
        "meta_element_set_no": 999,
        "meta_rev_at_epoch": 579,
        "meta_bstar": 0.0011196487,
        "meta_mean_motion_dot": 0.00046691,
        "meta_mean_motion_ddot": 0,
        "tle_line1": "1 66460U 25262E   25348.25947606  .00046691  00000+0  11196-2 0  9995",
        "tle_line2": "2 66460  42.9936  62.7369 0000806 307.5059  52.5724 15.40660029  5792"
      },
      "geometry": {
        "type": "Point",
        "coordinates": [
          59.57298061009419,
          1.9282395761580289
        ]
      }
    },
    {
      "type": "Feature",
      "properties": {
        "norad_id": 66461,
        "name": "STARLINK-35132",
        "group": "last-30-days",
        "lat": 10.452973954470568,
        "lon": 68.88651298996973,
        "alt_km": 442.4612807719777,
        "timestamp": "2025-12-15T04:01:19.178498+00:00",
        "meta_object_name": "STARLINK-35132",
        "meta_object_id": "2025-262F",
        "meta_epoch": "2025-12-14T06:10:25.228416",
        "meta_mean_motion": 15.40680665,
        "meta_eccentricity": 0.00030817,
        "meta_inclination": 43.007,
        "meta_ra_of_asc_node": 62.7174,
        "meta_arg_of_pericenter": 266.2071,
        "meta_mean_anomaly": 93.8433,
        "meta_ephemeris_type": 0,
        "meta_classification_type": "U",
        "meta_norad_cat_id": 66461,
        "meta_element_set_no": 999,
        "meta_rev_at_epoch": 579,
        "meta_bstar": 0.0019017995,
        "meta_mean_motion_dot": 0.00079931,
        "meta_mean_motion_ddot": 0,
        "tle_line1": "1 66461U 25262F   25348.25723644  .00079931  00000+0  19018-2 0  9994",
        "tle_line2": "2 66461  43.0070  62.7174 0003081 266.2071  93.8433 15.40680665  5794"
      },
      "geometry": {
        "type": "Point",
        "coordinates": [
          68.88651298996973,
          10.452973954470568
        ]
      }
    },
    {
      "type": "Feature",
      "properties": {
        "norad_id": 66462,
        "name": "STARLINK-35499",
        "group": "last-30-days",
        "lat": 18.618044428190874,
        "lon": 78.63788108681483,
        "alt_km": 441.86104857587725,
        "timestamp": "2025-12-15T04:01:19.178510+00:00",
        "meta_object_name": "STARLINK-35499",
        "meta_object_id": "2025-262G",
        "meta_epoch": "2025-12-14T06:07:11.433216",
        "meta_mean_motion": 15.4071747,
        "meta_eccentricity": 0.00032077,
        "meta_inclination": 42.9912,
        "meta_ra_of_asc_node": 62.6986,
        "meta_arg_of_pericenter": 141.844,
        "meta_mean_anomaly": 218.2644,
        "meta_ephemeris_type": 0,
        "meta_classification_type": "U",
        "meta_norad_cat_id": 66462,
        "meta_element_set_no": 999,
        "meta_rev_at_epoch": 579,
        "meta_bstar": 0.0012175979,
        "meta_mean_motion_dot": 0.00050934,
        "meta_mean_motion_ddot": 0,
        "tle_line1": "1 66462U 25262G   25348.25499344  .00050934  00000+0  12176-2 0  9992",
        "tle_line2": "2 66462  42.9912  62.6986 0003207 141.8440 218.2644 15.40717470  5798"
      },
      "geometry": {
        "type": "Point",
        "coordinates": [
          78.63788108681483,
          18.618044428190874
        ]
      }
    }
  ]
}